GOES 18                 
1 51850U 22021A   26095.15114208  .00000098  00000+0  00000+0 0  9995
2 51850   0.0482  39.4881 0000734  32.5859  38.7967  1.00268291  5862
GOES 19                 
1 60133U 24119A   26095.16919711 -.00000247  00000+0  00000+0 0  9999
2 60133   0.0443  40.5976 0001009  22.0775 116.5123  1.00271541  6231
